[
    {
        "Altitude(m)": 607897.6056271007,
        "Argument of Periapsis(deg)": 0.0,
        "Eccentricity": 0.0,
        "Inclination(deg)": 60.0,
        "Latitude(deg)": -14.292883730329143,
        "Longitude(deg)": 106.6187528971138,
        "Mean Anomaly(deg)": -16.363600000000037,
        "RAAN(deg)": 215.0,
        "Satellite Name": "Test1 967",
        "Satellite Number": 967,
        "Semi-Major Axis(m)": 6980739.136638005,
        "Time(s)": 0
    },
    {
        "Altitude(m)": 607750.8072304501,
        "Argument of Periapsis(deg)": 0.00010418945913296404,
        "Eccentricity": 0.0,
        "Inclination(deg)": 60.0,
        "Latitude(deg)": -13.758725172509154,
        "Longitude(deg)": 106.90582184828406,
        "Mean Anomaly(deg)": -15.743493854538185,
        "RAAN(deg)": 214.99957995086024,
        "Satellite Name": "Test1 967",
        "Satellite Number": 967,
        "Semi-Major Axis(m)": 6980739.136638005,
        "Time(s)": 10
    }
]